[
  {
    "OBJECT_NAME": "STARLINK-32637",
    "OBJECT_ID": "24216A",
    "EPOCH": "2025-11-11T02:25:46.506144",
    "MEAN_MOTION": 15.27646091,
    "ECCENTRICITY": 0.0001363,
    "INCLINATION": 43.0016,
    "RA_OF_ASC_NODE": 205.6613,
    "ARG_OF_PERICENTER": 276.8084,
    "MEAN_ANOMALY": 83.2613,
    "EPHEMERIS_TYPE": 0,
    "CLASSIFICATION_TYPE": "U",
    "NORAD_CAT_ID": 62032,
    "ELEMENT_SET_NO": 999,
    "REV_AT_EPOCH": 5574,
    "BSTAR": 0.0017298,
    "MEAN_MOTION_DOT": 0.00047742,
    "MEAN_MOTION_DDOT": 0.0,
    "TLE_LINE1": "1 62032U 24216A   25315.10123271  .00047742  00000+0  17298-2 0  9993",
    "TLE_LINE2": "2 62032  43.0016 205.6613 0001363 276.8084  83.2613 15.27646091 55745",
    "COMMENT": "Grouped by shell and plane from TLE"
  },
  {
    "OBJECT_NAME": "STARLINK-32615",
    "OBJECT_ID": "24216C",
    "EPOCH": "2025-11-11T01:47:07.935360",
    "MEAN_MOTION": 15.27611082,
    "ECCENTRICITY": 0.0001486,
    "INCLINATION": 43.0001,
    "RA_OF_ASC_NODE": 206.3152,
    "ARG_OF_PERICENTER": 269.9462,
    "MEAN_ANOMALY": 90.1219,
    "EPHEMERIS_TYPE": 0,
    "CLASSIFICATION_TYPE": "U",
    "NORAD_CAT_ID": 62034,
    "ELEMENT_SET_NO": 999,
    "REV_AT_EPOCH": 5457,
    "BSTAR": 0.0006139299999999999,
    "MEAN_MOTION_DOT": 0.00016686,
    "MEAN_MOTION_DDOT": 0.0,
    "TLE_LINE1": "1 62034U 24216C   25315.07439740  .00016686  00000+0  61393-3 0  9991",
    "TLE_LINE2": "2 62034  43.0001 206.3152 0001486 269.9462  90.1219 15.27611082 54577",
    "COMMENT": "Grouped by shell and plane from TLE"
  },
  {
    "OBJECT_NAME": "STARLINK-32225",
    "OBJECT_ID": "24216E",
    "EPOCH": "2025-11-11T01:52:41.127456",
    "MEAN_MOTION": 15.2762268,
    "ECCENTRICITY": 0.0001196,
    "INCLINATION": 43.001,
    "RA_OF_ASC_NODE": 206.3459,
    "ARG_OF_PERICENTER": 260.8444,
    "MEAN_ANOMALY": 99.2272,
    "EPHEMERIS_TYPE": 0,
    "CLASSIFICATION_TYPE": "U",
    "NORAD_CAT_ID": 62036,
    "ELEMENT_SET_NO": 999,
    "REV_AT_EPOCH": 5580,
    "BSTAR": 0.0010291,
    "MEAN_MOTION_DOT": 0.00028201,
    "MEAN_MOTION_DDOT": 0.0,
    "TLE_LINE1": "1 62036U 24216E   25315.07825379  .00028201  00000+0  10291-2 0  9996",
    "TLE_LINE2": "2 62036  43.0010 206.3459 0001196 260.8444  99.2272 15.27622680 55809",
    "COMMENT": "Grouped by shell and plane from TLE"
  },
  {
    "OBJECT_NAME": "STARLINK-32477",
    "OBJECT_ID": "24216G",
    "EPOCH": "2025-11-11T01:20:04.579584",
    "MEAN_MOTION": 15.27625428,
    "ECCENTRICITY": 0.00013,
    "INCLINATION": 42.9995,
    "RA_OF_ASC_NODE": 202.7184,
    "ARG_OF_PERICENTER": 266.7429,
    "MEAN_ANOMALY": 93.3274,
    "EPHEMERIS_TYPE": 0,
    "CLASSIFICATION_TYPE": "U",
    "NORAD_CAT_ID": 62038,
    "ELEMENT_SET_NO": 999,
    "REV_AT_EPOCH": 5461,
    "BSTAR": 0.0011842,
    "MEAN_MOTION_DOT": 0.00032514,
    "MEAN_MOTION_DDOT": 0.0,
    "TLE_LINE1": "1 62038U 24216G   25315.05560856  .00032514  00000+0  11842-2 0  9997",
    "TLE_LINE2": "2 62038  42.9995 202.7184 0001300 266.7429  93.3274 15.27625428 54619",
    "COMMENT": "Grouped by shell and plane from TLE"
  },
  {
    "OBJECT_NAME": "STARLINK-32480",
    "OBJECT_ID": "24216H",
    "EPOCH": "2025-11-11T01:56:23.109792",
    "MEAN_MOTION": 15.27623327,
    "ECCENTRICITY": 0.0001233,
    "INCLINATION": 42.9998,
    "RA_OF_ASC_NODE": 206.3635,
    "ARG_OF_PERICENTER": 255.0849,
    "MEAN_ANOMALY": 104.9867,
    "EPHEMERIS_TYPE": 0,
    "CLASSIFICATION_TYPE": "U",
    "NORAD_CAT_ID": 62039,
    "ELEMENT_SET_NO": 999,
    "REV_AT_EPOCH": 5457,
    "BSTAR": 0.0009851999999999999,
    "MEAN_MOTION_DOT": 0.00026983,
    "MEAN_MOTION_DDOT": 0.0,
    "TLE_LINE1": "1 62039U 24216H   25315.08082303  .00026983  00000+0  98520-3 0  9999",
    "TLE_LINE2": "2 62039  42.9998 206.3635 0001233 255.0849 104.9867 15.27623327 54574",
    "COMMENT": "Grouped by shell and plane from TLE"
  },
  {
    "OBJECT_NAME": "STARLINK-32456",
    "OBJECT_ID": "24216K",
    "EPOCH": "2025-11-11T02:01:56.116128",
    "MEAN_MOTION": 15.27631351,
    "ECCENTRICITY": 0.0001435,
    "INCLINATION": 42.9991,
    "RA_OF_ASC_NODE": 206.3953,
    "ARG_OF_PERICENTER": 260.1334,
    "MEAN_ANOMALY": 99.9356,
    "EPHEMERIS_TYPE": 0,
    "CLASSIFICATION_TYPE": "U",
    "NORAD_CAT_ID": 62041,
    "ELEMENT_SET_NO": 999,
    "REV_AT_EPOCH": 5573,
    "BSTAR": 0.0018235000000000003,
    "MEAN_MOTION_DOT": 0.00050339,
    "MEAN_MOTION_DDOT": 0.0,
    "TLE_LINE1": "1 62041U 24216K   25315.08467727  .00050339  00000+0  18235-2 0  9995",
    "TLE_LINE2": "2 62041  42.9991 206.3953 0001435 260.1334  99.9356 15.27631351 55734",
    "COMMENT": "Grouped by shell and plane from TLE"
  },
  {
    "OBJECT_NAME": "STARLINK-32509",
    "OBJECT_ID": "24216L",
    "EPOCH": "2025-11-11T01:37:53.163552",
    "MEAN_MOTION": 15.27643007,
    "ECCENTRICITY": 4.54e-05,
    "INCLINATION": 42.9938,
    "RA_OF_ASC_NODE": 206.2665,
    "ARG_OF_PERICENTER": 333.5093,
    "MEAN_ANOMALY": 26.5736,
    "EPHEMERIS_TYPE": 0,
    "CLASSIFICATION_TYPE": "U",
    "NORAD_CAT_ID": 62042,
    "ELEMENT_SET_NO": 999,
    "REV_AT_EPOCH": 5573,
    "BSTAR": 0.0019611999999999997,
    "MEAN_MOTION_DOT": 0.00054207,
    "MEAN_MOTION_DDOT": 0.0,
    "TLE_LINE1": "1 62042U 24216L   25315.06797643  .00054207  00000+0  19612-2 0  9995",
    "TLE_LINE2": "2 62042  42.9938 206.2665 0000454 333.5093  26.5736 15.27643007 55731",
    "COMMENT": "Grouped by shell and plane from TLE"
  },
  {
    "OBJECT_NAME": "STARLINK-32618",
    "OBJECT_ID": "24216P",
    "EPOCH": "2025-11-11T01:54:32.261184",
    "MEAN_MOTION": 15.27624149,
    "ECCENTRICITY": 0.000241,
    "INCLINATION": 43.006,
    "RA_OF_ASC_NODE": 206.353,
    "ARG_OF_PERICENTER": 265.5897,
    "MEAN_ANOMALY": 94.468,
    "EPHEMERIS_TYPE": 0,
    "CLASSIFICATION_TYPE": "U",
    "NORAD_CAT_ID": 62045,
    "ELEMENT_SET_NO": 999,
    "REV_AT_EPOCH": 5573,
    "BSTAR": 0.0010642,
    "MEAN_MOTION_DOT": 0.00029179,
    "MEAN_MOTION_DDOT": 0.0,
    "TLE_LINE1": "1 62045U 24216P   25315.07954006  .00029179  00000+0  10642-2 0  9991",
    "TLE_LINE2": "2 62045  43.0060 206.3530 0002410 265.5897  94.4680 15.27624149 55732",
    "COMMENT": "Grouped by shell and plane from TLE"
  },
  {
    "OBJECT_NAME": "STARLINK-32598",
    "OBJECT_ID": "24216Q",
    "EPOCH": "2025-11-11T02:16:31.339488",
    "MEAN_MOTION": 15.27639013,
    "ECCENTRICITY": 0.0001623,
    "INCLINATION": 43.0019,
    "RA_OF_ASC_NODE": 205.6078,
    "ARG_OF_PERICENTER": 258.7978,
    "MEAN_ANOMALY": 101.2691,
    "EPHEMERIS_TYPE": 0,
    "CLASSIFICATION_TYPE": "U",
    "NORAD_CAT_ID": 62046,
    "ELEMENT_SET_NO": 999,
    "REV_AT_EPOCH": 5574,
    "BSTAR": 0.001678,
    "MEAN_MOTION_DOT": 0.00046286,
    "MEAN_MOTION_DDOT": 0.0,
    "TLE_LINE1": "1 62046U 24216Q   25315.09480717  .00046286  00000+0  16780-2 0  9994",
    "TLE_LINE2": "2 62046  43.0019 205.6078 0001623 258.7978 101.2691 15.27639013 55741",
    "COMMENT": "Grouped by shell and plane from TLE"
  },
  {
    "OBJECT_NAME": "STARLINK-32473",
    "OBJECT_ID": "24216T",
    "EPOCH": "2025-11-11T01:41:34.888416",
    "MEAN_MOTION": 15.27617345,
    "ECCENTRICITY": 9.76e-05,
    "INCLINATION": 42.9981,
    "RA_OF_ASC_NODE": 206.2854,
    "ARG_OF_PERICENTER": 270.059,
    "MEAN_ANOMALY": 90.015,
    "EPHEMERIS_TYPE": 0,
    "CLASSIFICATION_TYPE": "U",
    "NORAD_CAT_ID": 62049,
    "ELEMENT_SET_NO": 999,
    "REV_AT_EPOCH": 5457,
    "BSTAR": 0.0007497500000000001,
    "MEAN_MOTION_DOT": 0.0002045,
    "MEAN_MOTION_DDOT": 0.0,
    "TLE_LINE1": "1 62049U 24216T   25315.07054269  .00020450  00000+0  74975-3 0  9990",
    "TLE_LINE2": "2 62049  42.9981 206.2854 0000976 270.0590  90.0150 15.27617345 54575",
    "COMMENT": "Grouped by shell and plane from TLE"
  },
  {
    "OBJECT_NAME": "STARLINK-32408",
    "OBJECT_ID": "24216Y",
    "EPOCH": "2025-11-11T01:36:02.866176",
    "MEAN_MOTION": 15.27611828,
    "ECCENTRICITY": 0.0002297,
    "INCLINATION": 42.9959,
    "RA_OF_ASC_NODE": 206.2558,
    "ARG_OF_PERICENTER": 264.4986,
    "MEAN_ANOMALY": 95.5604,
    "EPHEMERIS_TYPE": 0,
    "CLASSIFICATION_TYPE": "U",
    "NORAD_CAT_ID": 62054,
    "ELEMENT_SET_NO": 999,
    "REV_AT_EPOCH": 5574,
    "BSTAR": 0.0014818000000000001,
    "MEAN_MOTION_DOT": 0.00040781,
    "MEAN_MOTION_DDOT": 0.0,
    "TLE_LINE1": "1 62054U 24216Y   25315.06669984  .00040781  00000+0  14818-2 0  9999",
    "TLE_LINE2": "2 62054  42.9959 206.2558 0002297 264.4986  95.5604 15.27611828 55745",
    "COMMENT": "Grouped by shell and plane from TLE"
  },
  {
    "OBJECT_NAME": "STARLINK-32571",
    "OBJECT_ID": "24216Z",
    "EPOCH": "2025-11-11T02:10:57.978048",
    "MEAN_MOTION": 15.2764589,
    "ECCENTRICITY": 0.0002966,
    "INCLINATION": 43.0013,
    "RA_OF_ASC_NODE": 205.5741,
    "ARG_OF_PERICENTER": 244.5788,
    "MEAN_ANOMALY": 115.4757,
    "EPHEMERIS_TYPE": 0,
    "CLASSIFICATION_TYPE": "U",
    "NORAD_CAT_ID": 62055,
    "ELEMENT_SET_NO": 999,
    "REV_AT_EPOCH": 5584,
    "BSTAR": 0.0017289,
    "MEAN_MOTION_DOT": 0.00047722,
    "MEAN_MOTION_DDOT": 0.0,
    "TLE_LINE1": "1 62055U 24216Z   25315.09094882  .00047722  00000+0  17289-2 0  9999",
    "TLE_LINE2": "2 62055  43.0013 205.5741 0002966 244.5788 115.4757 15.27645890 55845",
    "COMMENT": "Grouped by shell and plane from TLE"
  },
  {
    "OBJECT_NAME": "STARLINK-32660",
    "OBJECT_ID": "24229P",
    "EPOCH": "2025-11-11T03:13:55.229664",
    "MEAN_MOTION": 15.27627225,
    "ECCENTRICITY": 8.66e-05,
    "INCLINATION": 43.0003,
    "RA_OF_ASC_NODE": 206.057,
    "ARG_OF_PERICENTER": 272.692,
    "MEAN_ANOMALY": 87.3833,
    "EPHEMERIS_TYPE": 0,
    "CLASSIFICATION_TYPE": "U",
    "NORAD_CAT_ID": 62205,
    "ELEMENT_SET_NO": 999,
    "REV_AT_EPOCH": 5259,
    "BSTAR": 0.0008376400000000001,
    "MEAN_MOTION_DOT": 0.00022892,
    "MEAN_MOTION_DDOT": 0.0,
    "TLE_LINE1": "1 62205U 24229P   25315.13466701  .00022892  00000+0  83764-3 0  9991",
    "TLE_LINE2": "2 62205  43.0003 206.0570 0000866 272.6920  87.3833 15.27627225 52597",
    "COMMENT": "Grouped by shell and plane from TLE"
  }
]